{"type": "FeatureCollection", "features": [ {"type": "Feature", "properties": {"norad_id": 29974, "name": "FENGYUN 1C DEB", "group": "fengyun-1c-debris", "lat": -8.023066700538019, "lon": -121.88342590299487, "alt_km": 837.0288115491285, "timestamp": "2025-12-01T03:58:50.086824+00:00", "meta": {"OBJECT_NAME": "FENGYUN 1C DEB", "OBJECT_ID": "1999-025KY", "EPOCH": "2025-11-30T17:37:29.823744", "MEAN_MOTION": 14.1476238, "ECCENTRICITY": 0.0047554, "INCLINATION": 98.8955, "RA_OF_ASC_NODE": 58.9516, "ARG_OF_PERICENTER": 115.8452, "MEAN_ANOMALY": 35.2477, "EPHEMERIS_TYPE": 0, "CLASSIFICATION_TYPE": "U", "NORAD_CAT_ID": 29974, "ELEMENT_SET_NO": 999, "REV_AT_EPOCH": 96755, "BSTAR": 0.001135, "MEAN_MOTION_DOT": 2.167e-05, "MEAN_MOTION_DDOT": 0, "GROUP": "fengyun-1c-debris"}, "tle": {"line1": "1 29974U 99025KY  25334.73437296  .00002167  00000+0  11350-2 0  9991", "line2": "2 29974  98.8955  58.9516 0047554 115.8452  35.2477 14.14762380967558"}}, "geometry": {"type": "Point", "coordinates": [-121.88342590299487, -8.023066700538019]}}, {"type": "Feature", "properties": {"norad_id": 29975, "name": "FENGYUN 1C DEB", "group": "fengyun-1c-debris", "lat": 16.414478972823275, "lon": -161.19053557572252, "alt_km": 939.503117115476, "timestamp": "2025-12-01T03:58:50.086835+00:00", "meta": {"OBJECT_NAME": "FENGYUN 1C DEB", "OBJECT_ID": "1999-025KZ", "EPOCH": "2025-11-30T15:45:57.303072", "MEAN_MOTION": 13.98020024, "ECCENTRICITY": 0.0114409, "INCLINATION": 99.3417, "RA_OF_ASC_NODE": 15.5122, "ARG_OF_PERICENTER": 46.6525, "MEAN_ANOMALY": 75.3707, "EPHEMERIS_TYPE": 0, "CLASSIFICATION_TYPE": "U", "NORAD_CAT_ID": 29975, "ELEMENT_SET_NO": 999, "REV_AT_EPOCH": 96268, "BSTAR": 0.00019477, "MEAN_MOTION_DOT": 2.47e-06, "MEAN_MOTION_DDOT": 0, "GROUP": "fengyun-1c-debris"}, "tle": {"line1": "1 29975U 99025KZ  25334.65691323  .00000247  00000+0  19477-3 0  9992", "line2": "2 29975  99.3417  15.5122 0114409  46.6525  75.3707 13.98020024962689"}}, "geometry": {"type": "Point", "coordinates": [-161.19053557572252, 16.414478972823275]}}, {"type": "Feature", "properties": {"norad_id": 29976, "name": "FENGYUN 1C DEB", "group": "fengyun-1c-debris", "lat": -21.11331434348918, "lon": -23.73822829753213, "alt_km": 825.2193162583508, "timestamp": "2025-12-01T03:58:50.086846+00:00", "meta": {"OBJECT_NAME": "FENGYUN 1C DEB", "OBJECT_ID": "1999-025LA", "EPOCH": "2025-11-30T13:12:54.343872", "MEAN_MOTION": 13.98091538, "ECCENTRICITY": 0.0267471, "INCLINATION": 98.9186, "RA_OF_ASC_NODE": 332.187, "ARG_OF_PERICENTER": 273.4041, "MEAN_ANOMALY": 207.7002, "EPHEMERIS_TYPE": 0, "CLASSIFICATION_TYPE": "U", "NORAD_CAT_ID": 29976, "ELEMENT_SET_NO": 999, "REV_AT_EPOCH": 96166, "BSTAR": 0.00020234, "MEAN_MOTION_DOT": 3.44e-06, "MEAN_MOTION_DDOT": 0, "GROUP": "fengyun-1c-debris"}, "tle": {"line1": "1 29976U 99025LA  25334.55062898  .00000344  00000+0  20234-3 0  9992", "line2": "2 29976  98.9186 332.1870 0267471 273.4041 207.7002 13.98091538961661"}}, "geometry": {"type": "Point", "coordinates": [-23.73822829753213, -21.11331434348918]}}, {"type": "Feature", "properties": {"norad_id": 29977, "name": "FENGYUN 1C DEB", "group": "fengyun-1c-debris", "lat": -19.90187743928979, "lon": -158.87270600458444, "alt_km": 820.6652420447272, "timestamp": "2025-12-01T03:58:50.086856+00:00", "meta": {"OBJECT_NAME": "FENGYUN 1C DEB", "OBJECT_ID": "1999-025LB", "EPOCH": "2025-11-25T08:46:57.387936", "MEAN_MOTION": 14.04973016, "ECCENTRICITY": 0.01297038, "INCLINATION": 98.3977, "RA_OF_ASC_NODE": 192.6903, "ARG_OF_PERICENTER": 306.2365, "MEAN_ANOMALY": 233.3291, "EPHEMERIS_TYPE": 0, "CLASSIFICATION_TYPE": "U", "NORAD_CAT_ID": 29977, "ELEMENT_SET_NO": 999, "REV_AT_EPOCH": 96116, "BSTAR": 0.001557762, "MEAN_MOTION_DOT": 2.662e-05, "MEAN_MOTION_DDOT": 0, "GROUP": "fengyun-1c-debris"}, "tle": {"line1": "1 29977U 99025LB  25329.36594199  .00002662  00000+0  15578-2 0  9999", "line2": "2 29977  98.3977 192.6903 0129703 306.2365 233.3291 14.04973016961167"}}, "geometry": {"type": "Point", "coordinates": [-158.87270600458444, -19.90187743928979]}}, {"type": "Feature", "properties": {"norad_id": 29978, "name": "FENGYUN 1C DEB", "group": "fengyun-1c-debris", "lat": 78.04075292394461, "lon": -23.09898366374532, "alt_km": 844.5397445476146, "timestamp": "2025-12-01T03:58:50.086866+00:00", "meta": {"OBJECT_NAME": "FENGYUN 1C DEB", "OBJECT_ID": "1999-025LC", "EPOCH": "2025-11-30T16:07:56.879904", "MEAN_MOTION": 13.95901573, "ECCENTRICITY": 0.0077064, "INCLINATION": 99.0633, "RA_OF_ASC_NODE": 25.3161, "ARG_OF_PERICENTER": 84.9641, "MEAN_ANOMALY": 37.7748, "EPHEMERIS_TYPE": 0, "CLASSIFICATION_TYPE": "U", "NORAD_CAT_ID": 29978, "ELEMENT_SET_NO": 999, "REV_AT_EPOCH": 96148, "BSTAR": 0.00030007, "MEAN_MOTION_DOT": 3.78e-06, "MEAN_MOTION_DDOT": 0, "GROUP": "fengyun-1c-debris"}, "tle": {"line1": "1 29978U 99025LC  25334.67218611  .00000378  00000+0  30007-3 0  9999", "line2": "2 29978  99.0633  25.3161 0077064  84.9641  37.7748 13.95901573961488"}}, "geometry": {"type": "Point", "coordinates": [-23.09898366374532, 78.04075292394461]}}, {"type": "Feature", "properties": {"norad_id": 29979, "name": "FENGYUN 1C DEB", "group": "fengyun-1c-debris", "lat": -68.76181861792588, "lon": 21.155071030539, "alt_km": 815.4558990994965, "timestamp": "2025-12-01T03:58:50.086877+00:00", "meta": {"OBJECT_NAME": "FENGYUN 1C DEB", "OBJECT_ID": "1999-025LD", "EPOCH": "2025-11-30T20:42:33.867072", "MEAN_MOTION": 14.25920568, "ECCENTRICITY": 0.0106959, "INCLINATION": 98.3716, "RA_OF_ASC_NODE": 358.6002, "ARG_OF_PERICENTER": 197.8132, "MEAN_ANOMALY": 336.2648, "EPHEMERIS_TYPE": 0, "CLASSIFICATION_TYPE": "U", "NORAD_CAT_ID": 29979, "ELEMENT_SET_NO": 999, "REV_AT_EPOCH": 97904, "BSTAR": 0.00045652, "MEAN_MOTION_DOT": 1.114e-05, "MEAN_MOTION_DDOT": 0, "GROUP": "fengyun-1c-debris"}, "tle": {"line1": "1 29979U 99025LD  25334.86289198  .00001114  00000+0  45652-3 0  9990", "line2": "2 29979  98.3716 358.6002 0106959 197.8132 336.2648 14.25920568979040"}}, "geometry": {"type": "Point", "coordinates": [21.155071030539, -68.76181861792588]}}, {"type": "Feature", "properties": {"norad_id": 29980, "name": "FENGYUN 1C DEB", "group": "fengyun-1c-debris", "lat": -44.23958285780843, "lon": 153.3791266097765, "alt_km": 826.556305705547, "timestamp": "2025-12-01T03:58:50.086887+00:00", "meta": {"OBJECT_NAME": "FENGYUN 1C DEB", "OBJECT_ID": "1999-025LE", "EPOCH": "2025-11-30T11:13:56.174592", "MEAN_MOTION": 14.06302978, "ECCENTRICITY": 0.00867524, "INCLINATION": 98.5515, "RA_OF_ASC_NODE": 144.2943, "ARG_OF_PERICENTER": 282.8876, "MEAN_ANOMALY": 100.7675, "EPHEMERIS_TYPE": 0, "CLASSIFICATION_TYPE": "U", "NORAD_CAT_ID": 29980, "ELEMENT_SET_NO": 999, "REV_AT_EPOCH": 96820, "BSTAR": 0.00024607883, "MEAN_MOTION_DOT": 3.78e-06, "MEAN_MOTION_DDOT": 0, "GROUP": "fengyun-1c-debris"}, "tle": {"line1": "1 29980U 99025LE  25334.46801128  .00000378  00000+0  24608-3 0  9990", "line2": "2 29980  98.5515 144.2943 0086752 282.8876 100.7675 14.06302978968200"}}, "geometry": {"type": "Point", "coordinates": [153.3791266097765, -44.23958285780843]}}, {"type": "Feature", "properties": {"norad_id": 29982, "name": "FENGYUN 1C DEB", "group": "fengyun-1c-debris", "lat": 2.4497407663680506, "lon": 154.34203037277987, "alt_km": 606.6047602986282, "timestamp": "2025-12-01T03:58:50.086899+00:00", "meta": {"OBJECT_NAME": "FENGYUN 1C DEB", "OBJECT_ID": "1999-025LG", "EPOCH": "2025-11-30T11:41:49.007328", "MEAN_MOTION": 14.6673038, "ECCENTRICITY": 0.01224423, "INCLINATION": 99.4022, "RA_OF_ASC_NODE": 153.9712, "ARG_OF_PERICENTER": 325.6983, "MEAN_ANOMALY": 55.5325, "EPHEMERIS_TYPE": 0, "CLASSIFICATION_TYPE": "U", "NORAD_CAT_ID": 29982, "ELEMENT_SET_NO": 999, "REV_AT_EPOCH": 104, "BSTAR": 0.00049764077, "MEAN_MOTION_DOT": 3.029e-05, "MEAN_MOTION_DDOT": 0, "GROUP": "fengyun-1c-debris"}, "tle": {"line1": "1 29982U 99025LG  25334.48737277  .00003029  00000+0  49764-3 0  9993", "line2": "2 29982  99.4022 153.9712 0122442 325.6983  55.5325 14.66730380  1045"}}, "geometry": {"type": "Point", "coordinates": [154.34203037277987, 2.4497407663680506]}}, {"type": "Feature", "properties": {"norad_id": 29985, "name": "FENGYUN 1C DEB", "group": "fengyun-1c-debris", "lat": 80.7126419580339, "lon": -79.06185265556536, "alt_km": 869.1175682617313, "timestamp": "2025-12-01T03:58:50.086910+00:00", "meta": {"OBJECT_NAME": "FENGYUN 1C DEB", "OBJECT_ID": "1999-025LK", "EPOCH": "2025-11-30T12:48:41.342112", "MEAN_MOTION": 14.1032006, "ECCENTRICITY": 0.00276793, "INCLINATION": 98.7115, "RA_OF_ASC_NODE": 349.9764, "ARG_OF_PERICENTER": 244.5101, "MEAN_ANOMALY": 235.2078, "EPHEMERIS_TYPE": 0, "CLASSIFICATION_TYPE": "U", "NORAD_CAT_ID": 29985, "ELEMENT_SET_NO": 999, "REV_AT_EPOCH": 97176, "BSTAR": 2.2007411e-05, "MEAN_MOTION_DOT": -4e-08, "MEAN_MOTION_DDOT": 0, "GROUP": "fengyun-1c-debris"}, "tle": {"line1": "1 29985U 99025LK  25334.53381183 -.00000004  00000+0  22007-4 0  9996", "line2": "2 29985  98.7115 349.9764 0027679 244.5101 235.2078 14.10320060971760"}}, "geometry": {"type": "Point", "coordinates": [-79.06185265556536, 80.7126419580339]}}]}